*******************************************************************************
JPL/HORIZONS                444 Gyptis (A899 FA)           2020-Jun-22 09:01:22
Rec #:     444 (+COV) Soln.date: 2020-May-20_01:05:53   # obs: 2760 (1899-2020)
 
IAU76/J2000 helio. ecliptic osc. elements (au, days, deg., period=Julian yrs):
 
  EPOCH=  2454776.5 ! 2008-Nov-06.00 (TDB)         Residual RMS= .31498
   EC= .1732751501835721   QR= 2.291822722460588   TP= 2454177.3089883011
   OM= 195.819326803692    W=  155.3050321314039   IN= 10.27769075927647
   A= 2.7721710832443      MA= 127.9497142551971   ADIST= 3.252519444028011
   PER= 4.61571            N= .213537433           ANGMOM= .028207974
   DAN= 3.19135            DDN= 2.3232             L= 351.4742943
   B= 4.2748624            MOID= 1.29050004        TP= 2007-Mar-17.8089883011
 
Asteroid physical parameters (km, seconds, rotational period in hours):
   GM= n.a.                RAD= 79.6655            ROTPER= 6.214
   H= 8.1                  G= .220                 B-V= .676
                           ALBEDO= .051            STYP= C
 
ASTEROID comments: 
1: soln ref.= JPL#108, OCC=0
2: source=ORB
*******************************************************************************
 
 
*******************************************************************************
Ephemeris / WWW_USER Mon Jun 22 09:01:22 2020 Pasadena, USA      / Horizons
*******************************************************************************
Target body name: 444 Gyptis (A899 FA)            {source: JPL#108}
Center body name: Solar System Barycenter (0)     {source: DE431}
Center-site name: BODY CENTER
*******************************************************************************
Start time      : A.D. 1969-Jun-28 00:00:00.0000 TDB
Stop  time      : A.D. 2071-May-04 00:00:00.0000 TDB
Step-size       : 7200 minutes
*******************************************************************************
Center geodetic : 0.00000000,0.00000000,0.0000000 {E-lon(deg),Lat(deg),Alt(km)}
Center cylindric: 0.00000000,0.00000000,0.0000000 {E-lon(deg),Dxy(km),Dz(km)}
Center radii    : (undefined)                                                  
Small perturbers: Yes                             {source: SB431-N16}
Output units    : AU-D
Output type     : GEOMETRIC cartesian states
Output format   : 2 (position and velocity)
Reference frame : Ecliptic of J2000.0
*******************************************************************************
Initial IAU76/J2000 heliocentric ecliptic osculating elements (au, days, deg.):
  EPOCH=  2454776.5 ! 2008-Nov-06.00 (TDB)         Residual RMS= .31498        
   EC= .1732751501835721   QR= 2.291822722460588   TP= 2454177.3089883011      
   OM= 195.819326803692    W=  155.3050321314039   IN= 10.27769075927647       
  Equivalent ICRF heliocentric equatorial cartesian coordinates (au, au/d):
   X=-2.100293945736921E+00  Y= 2.253815547320049E+00  Z= 4.376830266473605E-01
  VX=-7.435723938028869E-03 VY=-5.062351837785611E-03 VZ=-1.591826017426257E-03
Asteroid physical parameters (km, seconds, rotational period in hours):        
   GM= n.a.                RAD= 79.6655            ROTPER= 6.214               
   H= 8.1                  G= .220                 B-V= .676                   
                           ALBEDO= .051            STYP= C                     
*******************************************************************************
            JDTDB,            Calendar Date (TDB),        delta-T,                      X,                      Y,                      Z,                     VX,                     VY,                     VZ,
******************************************************************************************************************************************************************************************************************
$$SOE
2460420.500000000, A.D. 2024-Apr-20 00:00:00.0000,      69.185586, -2.023444684537114E+00, -2.164869077735770E+00,  2.792002587824836E-01,  8.003645609542536E-03, -5.197808446996873E-03,  1.296129715468351E-03,
2460425.500000000, A.D. 2024-Apr-25 00:00:00.0000,      69.185542, -1.983142554575139E+00, -2.190550519782689E+00,  2.856410533517245E-01,  8.116972239999805E-03, -5.074365582224603E-03,  1.280106385193383E-03,
2460430.500000000, A.D. 2024-Apr-30 00:00:00.0000,      69.185486, -1.942277345137467E+00, -2.215608699659372E+00,  2.920005022862152E-01,  8.228869028773201E-03, -4.948502397971539E-03,  1.263590847430468E-03,
2460435.500000000, A.D. 2024-May-05 00:00:00.0000,      69.185422, -1.900856332040558E+00, -2.240031498559052E+00,  2.982761353741096E-01,  8.339285123455761E-03, -4.820212113023054E-03,  1.246579440195318E-03,
2460440.500000000, A.D. 2024-May-10 00:00:00.0000,      69.185348, -1.858887048518755E+00, -2.263806765347653E+00,  3.044654642165608E-01,  8.448168405728354E-03, -4.689488585906154E-03,  1.229068551934658E-03,
2460445.500000000, A.D. 2024-May-15 00:00:00.0000,      69.185264, -1.816377291606787E+00, -2.286922319887953E+00,  3.105659824991659E-01,  8.555465470318959E-03, -4.556326365454435E-03,  1.211054629312343E-03,
2460450.500000000, A.D. 2024-May-20 00:00:00.0000,      69.185170, -1.773335128625311E+00, -2.309365956622368E+00,  3.165751663034065E-01,  8.661121604849510E-03, -4.420720743708723E-03,  1.192534185424382E-03,
2460455.500000000, A.D. 2024-May-25 00:00:00.0000,      69.185066, -1.729768903764748E+00, -2.331125448426271E+00,  3.224904744602816E-01,  8.765080770693916E-03, -4.282667811235920E-03,  1.173503808465218E-03,
2460460.500000000, A.D. 2024-May-30 00:00:00.0000,      69.184955, -1.685687244762036E+00, -2.352188550744178E+00,  3.283093489484566E-01,  8.867285584967848E-03, -4.142164514985078E-03,  1.153960170872364E-03,
2460465.500000000, A.D. 2024-Jun-04 00:00:00.0000,      69.184839, -1.641099069664423E+00, -2.372543006021746E+00,  3.340292153393963E-01,  8.967677303740942E-03, -3.999208718766997E-03,  1.133900038981756E-03,
2460470.500000000, A.D. 2024-Jun-09 00:00:00.0000,      69.184718, -1.596013593673942E+00, -2.392176548446866E+00,  3.396474832921187E-01,  9.066195806566901E-03, -3.853799266412452E-03,  1.113320283223885E-03,
2460475.500000000, A.D. 2024-Jun-14 00:00:00.0000,      69.184591, -1.550440336065670E+00, -2.411076909013203E+00,  3.451615471003091E-01,  9.162779582472826E-03, -3.705936047587858E-03,  1.092217888872563E-03,
2460480.500000000, A.D. 2024-Jun-19 00:00:00.0000,      69.184459, -1.504389127171884E+00, -2.429231820919348E+00,  3.505687862945286E-01,  9.257365717660502E-03, -3.555620066227209E-03,  1.070589967328395E-03,
2460485.500000000, A.D. 2024-Jun-24 00:00:00.0000,      69.184322, -1.457870115422933E+00, -2.446629025316968E+00,  3.558665663021828E-01,  9.349889885133798E-03, -3.402853511741410E-03,  1.048433767949133E-03,
2460490.500000000, A.D. 2024-Jun-29 00:00:00.0000,      69.184184, -1.410893774435021E+00, -2.463256277422547E+00,  3.610522391681505E-01,  9.440286336314791E-03, -3.247639833285034E-03,  1.025746690496839E-03,
2460495.500000000, A.D. 2024-Jul-04 00:00:00.0000,      69.184046, -1.363470910134927E+00, -2.479101353008222E+00,  3.661231443393439E-01,  9.528487894662778E-03, -3.089983817104937E-03,  1.002526298269114E-03,
2460500.500000000, A.D. 2024-Jul-09 00:00:00.0000,      69.183909, -1.315612667911215E+00, -2.494152055286724E+00,  3.710766095166422E-01,  9.614425951514972E-03, -2.929891666803615E-03,  9.787703319127370E-04,
2460505.500000000, A.D. 2024-Jul-14 00:00:00.0000,      69.183771, -1.267330539780005E+00, -2.508396222204629E+00,  3.759099515775392E-01,  9.698030464467851E-03, -2.767371086387302E-03,  9.544767238920526E-04,
2460510.500000000, A.D. 2024-Jul-19 00:00:00.0000,      69.183634, -1.218636371551870E+00, -2.521821734157736E+00,  3.806204775727366E-01,  9.779229958601749E-03, -2.602431366068370E-03,  9.296436135953401E-04,
2460515.500000000, A.D. 2024-Jul-24 00:00:00.0000,      69.183498, -1.169542369984862E+00, -2.534416522142330E+00,  3.852054857998298E-01,  9.857951530851975E-03, -2.435083470818420E-03,  9.042693630652080E-04,
2460520.500000000, A.D. 2024-Jul-29 00:00:00.0000,      69.183367, -1.120061109907155E+00, -2.546168576356152E+00,  3.896622669571907E-01,  9.934120857846758E-03, -2.265340131706038E-03,  8.783525733461101E-04,
2460525.500000000, A.D. 2024-Aug-03 00:00:00.0000,      69.183242, -1.070205541291188E+00, -2.557065955263171E+00,  3.939881053811576E-01,  1.000766220751349E-02, -2.093215940098514E-03,  8.518921014653672E-04,
2460530.500000000, A.D. 2024-Aug-08 00:00:00.0000,      69.183123, -1.019988996259820E+00, -2.567096795136715E+00,  3.981802803698000E-01,  1.007849845470934E-02, -1.918727444812442E-03,  8.248870780891125E-04,
2460535.500000000, A.D. 2024-Aug-13 00:00:00.0000,      69.183009, -9.694251960038122E-01, -2.576249320095814E+00,  4.022360675967521E-01,  1.014655110109358E-02, -1.741893252247015E-03,  7.973369259036710E-04,
2460540.500000000, A.D. 2024-Aug-18 00:00:00.0000,      69.182901, -9.185282575888671E-01, -2.584511852649554E+00,  4.061527406188397E-01,  1.021174029947556E-02, -1.562734129442745E-03,  7.692413787526012E-04,
2460545.500000000, A.D. 2024-Aug-23 00:00:00.0000,      69.182800, -8.673127006291824E-01, -2.591872824763855E+00,  4.099275724813125E-01,  1.027398488290687E-02, -1.381273109967002E-03,  7.406005015437753E-04,
2460550.500000000, A.D. 2024-Aug-28 00:00:00.0000,      69.182709, -8.157934538030620E-01, -2.598320789464469E+00,  4.135578374245364E-01,  1.033320239881974E-02, -1.197535602503717E-03,  7.114147109267025E-04,
2460555.500000000, A.D. 2024-Sep-02 00:00:00.0000,      69.182628, -7.639858611846049E-01, -2.603844432989412E+00,  4.170408126960019E-01,  1.038930914850235E-02, -1.011549502003112E-03,  6.816847967398202E-04,
